{"fetched_at":"2026-07-17T17:38:17.461Z","source":"https://celestrak.org/NORAD/elements/gp.php?NAME=HAWK&FORMAT=JSON","constellation":"hawkeye-360","records":[{"OBJECT_NAME":"HAWK-12A","OBJECT_ID":"2025-138C","EPOCH":"2026-07-16T23:06:28.690848","CLASSIFICATION_TYPE":"U","MEAN_MOTION":15.18410085,"ECCENTRICITY":0.00150024,"INCLINATION":97.4412,"RA_OF_ASC_NODE":200.2519,"ARG_OF_PERICENTER":40.7771,"MEAN_ANOMALY":319.4583,"EPHEMERIS_TYPE":0,"NORAD_CAT_ID":64623,"ELEMENT_SET_NO":999,"REV_AT_EPOCH":5838,"BSTAR":0.0001022083,"MEAN_MOTION_DOT":0.0000204,"MEAN_MOTION_DDOT":0},{"OBJECT_NAME":"HAWK-13A","OBJECT_ID":"2026-004AF","EPOCH":"2026-07-16T23:09:21.407904","CLASSIFICATION_TYPE":"U","MEAN_MOTION":15.19366201,"ECCENTRICITY":0.00043046,"INCLINATION":97.4446,"RA_OF_ASC_NODE":196.4135,"ARG_OF_PERICENTER":211.4303,"MEAN_ANOMALY":148.6675,"EPHEMERIS_TYPE":0,"NORAD_CAT_ID":67392,"ELEMENT_SET_NO":999,"REV_AT_EPOCH":2828,"BSTAR":0.0001019311,"MEAN_MOTION_DOT":0.00002087,"MEAN_MOTION_DDOT":0},{"OBJECT_NAME":"HAWK-13C","OBJECT_ID":"2026-004AG","EPOCH":"2026-07-17T05:28:29.681184","CLASSIFICATION_TYPE":"U","MEAN_MOTION":15.19363759,"ECCENTRICITY":0.00041554,"INCLINATION":97.4594,"RA_OF_ASC_NODE":197.1015,"ARG_OF_PERICENTER":213.7123,"MEAN_ANOMALY":146.3848,"EPHEMERIS_TYPE":0,"NORAD_CAT_ID":67393,"ELEMENT_SET_NO":999,"REV_AT_EPOCH":2832,"BSTAR":0.00010269651,"MEAN_MOTION_DOT":0.00002103,"MEAN_MOTION_DDOT":0},{"OBJECT_NAME":"HAWK-13B","OBJECT_ID":"2026-004AK","EPOCH":"2026-07-17T05:28:21.760896","CLASSIFICATION_TYPE":"U","MEAN_MOTION":15.1936616,"ECCENTRICITY":0.00054282,"INCLINATION":97.4531,"RA_OF_ASC_NODE":196.9226,"ARG_OF_PERICENTER":215.4112,"MEAN_ANOMALY":144.6763,"EPHEMERIS_TYPE":0,"NORAD_CAT_ID":67396,"ELEMENT_SET_NO":999,"REV_AT_EPOCH":2832,"BSTAR":0.00010184719,"MEAN_MOTION_DOT":0.00002086,"MEAN_MOTION_DDOT":0},{"OBJECT_NAME":"HAWK-14B","OBJECT_ID":"2026-067W","EPOCH":"2026-07-16T20:55:31.562976","CLASSIFICATION_TYPE":"U","MEAN_MOTION":15.18438735,"ECCENTRICITY":0.00013701,"INCLINATION":97.4564,"RA_OF_ASC_NODE":155.9005,"ARG_OF_PERICENTER":352.3837,"MEAN_ANOMALY":7.7376,"EPHEMERIS_TYPE":0,"NORAD_CAT_ID":68436,"ELEMENT_SET_NO":999,"REV_AT_EPOCH":1644,"BSTAR":0.00010825479,"MEAN_MOTION_DOT":0.00002161,"MEAN_MOTION_DDOT":0},{"OBJECT_NAME":"HAWK-14C","OBJECT_ID":"2026-067AB","EPOCH":"2026-07-16T20:55:40.520928","CLASSIFICATION_TYPE":"U","MEAN_MOTION":15.18436671,"ECCENTRICITY":0.00024208,"INCLINATION":97.4502,"RA_OF_ASC_NODE":155.7795,"ARG_OF_PERICENTER":20.0845,"MEAN_ANOMALY":340.0484,"EPHEMERIS_TYPE":0,"NORAD_CAT_ID":68441,"ELEMENT_SET_NO":999,"REV_AT_EPOCH":1644,"BSTAR":0.00011076342,"MEAN_MOTION_DOT":0.00002213,"MEAN_MOTION_DDOT":0},{"OBJECT_NAME":"HAWK-14A","OBJECT_ID":"2026-067AJ","EPOCH":"2026-07-17T03:15:25.292160","CLASSIFICATION_TYPE":"U","MEAN_MOTION":15.18441383,"ECCENTRICITY":0.00030248,"INCLINATION":97.4626,"RA_OF_ASC_NODE":156.2884,"ARG_OF_PERICENTER":9.364,"MEAN_ANOMALY":350.765,"EPHEMERIS_TYPE":0,"NORAD_CAT_ID":68448,"ELEMENT_SET_NO":999,"REV_AT_EPOCH":1648,"BSTAR":0.00010817652,"MEAN_MOTION_DOT":0.0000216,"MEAN_MOTION_DDOT":0}]}
