HAWK-12A                
1 64623U 25138C   26197.96283207  .00002040  00000+0  10221-3 0  9996
2 64623  97.4412 200.2519 0015002  40.7771 319.4583 15.18410085 58383
HAWK-13A                
1 67392U 26004AF  26197.96483111  .00002087  00000+0  10193-3 0  9990
2 67392  97.4446 196.4135 0004304 211.4303 148.6675 15.19366201 28288
HAWK-13C                
1 67393U 26004AG  26198.22812131  .00002103  00000+0  10270-3 0  9994
2 67393  97.4594 197.1015 0004155 213.7123 146.3848 15.19363759 28324
HAWK-13B                
1 67396U 26004AK  26198.22802964  .00002086  00000+0  10185-3 0  9995
2 67396  97.4531 196.9226 0005428 215.4112 144.6763 15.19366160 28326
HAWK-14B                
1 68436U 26067W   26197.87189309  .00002161  00000+0  10825-3 0  9996
2 68436  97.4564 155.9005 0001370 352.3837   7.7376 15.18438735 16441
HAWK-14C                
1 68441U 26067AB  26197.87199677  .00002213  00000+0  11076-3 0  9998
2 68441  97.4502 155.7795 0002420  20.0845 340.0484 15.18436671 16448
HAWK-14A                
1 68448U 26067AJ  26198.13570940  .00002160  00000+0  10818-3 0  9995
2 68448  97.4626 156.2884 0003024   9.3640 350.7650 15.18441383 16484
